NORAD_CAT_ID,OBJECT_NAME,OBJECT_TYPE,EPOCH,MEAN_MOTION,ECCENTRICITY,INCLINATION,RA_OF_ASC_NODE,ARG_OF_PERICENTER,MEAN_ANOMALY,BSTAR,MEAN_MOTION_DOT,MEAN_MOTION_DDOT,TLE_LINE0,TLE_LINE1,TLE_LINE2,SEMIMAJOR_AXIS,PERIOD,APOGEE,PERIGEE,DECAYED
53898.0,STARLINK-5044,PAYLOAD,2024-02-21 19:12:29,15.08840055,0.000151,53.2163,76.7571,88.2837,271.8328,6.4406e-05,7.37e-06,0.0,0 STARLINK-5044,1 53898U 22119N   24052.80034714  .00000737  00000-0  64406-4 0  9999,2 53898  53.2163  76.7571 0001510  88.2837 271.8328 15.08840055 78935,6917.88,95.438,540.79,538.701,0.0
53898.0,STARLINK-5044,PAYLOAD,2024-02-22 07:55:35,15.08837548,0.0001389,53.2171,74.3775,93.8228,266.2923,0.00010054,1.312e-05,0.0,0 STARLINK-5044,1 53898U 22119N   24053.33026802  .00001312  00000-0  10054-3 0  9996,2 53898  53.2171  74.3775 0001389  93.8228 266.2923 15.08837548 79016,6917.888,95.438,540.714,538.792,0.0
53898.0,STARLINK-5044,PAYLOAD,2024-02-23 10:57:07,15.08846489,0.0001636,53.2175,69.3217,96.1131,264.0048,7.0564e-05,8.35e-06,0.0,0 STARLINK-5044,1 53898U 22119N   24054.45634214  .00000835  00000-0  70564-4 0  9994,2 53898  53.2175  69.3217 0001636  96.1131 264.0048 15.08846489 78768,6917.861,95.437,540.857,538.594,0.0
53898.0,STARLINK-5044,PAYLOAD,2024-02-24 04:26:23,15.08845498,0.0001684,53.2177,66.051,91.2345,268.884,-0.00017514,-3.075e-05,0.0,0 STARLINK-5044,1 53898U 22119N   24055.18499058 -.00003075  00000-0 -17514-3 0  9996,2 53898  53.2177  66.0510 0001684  91.2345 268.8840 15.08845498 78879,6917.864,95.437,540.894,538.564,0.0
53898.0,STARLINK-5044,PAYLOAD,2024-02-24 10:47:55,15.08837936,0.0001524,53.2173,64.8612,88.5881,271.5285,3.3985e-05,2.53e-06,0.0,0 STARLINK-5044,1 53898U 22119N   24055.44995199  .00000253  00000-0  33985-4 0  9996,2 53898  53.2173  64.8612 0001524  88.5881 271.5285 15.08837936 79335,6917.887,95.438,540.806,538.697,0.0
53898.0,STARLINK-5044,PAYLOAD,2024-02-24 17:09:28,15.0883679,0.0001515,53.2173,63.6715,87.3709,272.7456,3.0703e-05,2.01e-06,0.0,0 STARLINK-5044,1 53898U 22119N   24055.71491368  .00000201  00000-0  30703-4 0  9993,2 53898  53.2173  63.6715 0001515  87.3709 272.7456 15.08836790 79376,6917.89,95.438,540.803,538.707,0.0
53898.0,STARLINK-5044,PAYLOAD,2024-02-25 07:27:56,15.08845805,0.0001507,53.2174,60.9979,96.4567,263.6597,5.0762e-05,5.2e-06,0.0,0 STARLINK-5044,1 53898U 22119N   24056.31106834  .00000520  00000-0  50762-4 0  9992,2 53898  53.2174  60.9979 0001507  96.4567 263.6597 15.08845805 79049,6917.863,95.437,540.77,538.685,0.0
53898.0,STARLINK-5044,PAYLOAD,2024-02-25 17:00:15,15.08846449,0.0001527,53.2177,59.2135,94.6905,265.4262,5.4232e-05,5.75e-06,0.0,0 STARLINK-5044,1 53898U 22119N   24056.70850730  .00000575  00000-0  54232-4 0  9992,2 53898  53.2177  59.2135 0001527  94.6905 265.4262 15.08846449 79522,6917.861,95.437,540.782,538.669,0.0
53898.0,STARLINK-5044,PAYLOAD,2024-02-26 04:07:57,15.08836441,0.0001592,53.2182,57.1324,94.0281,266.0893,8.1616e-05,1.011e-05,0.0,0 STARLINK-5044,1 53898U 22119N   24057.17219506  .00001011  00000-0  81616-4 0  9996,2 53898  53.2182  57.1324 0001592  94.0281 266.0893 15.08836441 79177,6917.891,95.438,540.858,538.655,0.0
53898.0,STARLINK-5044,PAYLOAD,2024-02-26 10:29:30,15.08840875,0.0001718,53.2189,55.9433,91.9937,268.1251,0.00010093,1.319e-05,0.0,0 STARLINK-5044,1 53898U 22119N   24057.43715282  .00001319  00000-0  10093-3 0  9998,2 53898  53.2189  55.9433 0001718  91.9937 268.1251 15.08840875 79633,6917.878,95.437,540.931,538.554,0.0
53898.0,STARLINK-5044,PAYLOAD,2024-02-27 08:44:53,15.08845274,0.0001597,53.2186,51.7733,92.1415,267.976,4.9631e-05,5.02e-06,0.0,0 STARLINK-5044,1 53898U 22119N   24058.36451064  .00000502  00000-0  49631-4 0  9990,2 53898  53.2186  51.7733 0001597  92.1415 267.9760 15.08845274 79355,6917.864,95.437,540.834,538.624,0.0
53898.0,STARLINK-5044,PAYLOAD,2024-02-27 23:03:22,15.0883679,0.000177,53.2182,49.1034,84.9486,275.1708,4.604e-05,4.45e-06,0.0,0 STARLINK-5044,1 53898U 22119N   24058.96067788  .00000445  00000-0  46040-4 0  9999,2 53898  53.2182  49.1034 0001770  84.9486 275.1708 15.08836790 79868,6917.89,95.438,540.98,538.531,0.0
53898.0,STARLINK-5044,PAYLOAD,2024-02-28 03:49:31,15.08838689,0.000171,53.2181,48.2118,84.4089,275.7099,6.2987e-05,7.14e-06,0.0,0 STARLINK-5044,1 53898U 22119N   24059.15939619  .00000714  00000-0  62987-4 0  9999,2 53898  53.2181  48.2118 0001710  84.4089 275.7099 15.08838689 79473,6917.884,95.438,540.932,538.566,0.0
53898.0,STARLINK-5044,PAYLOAD,2024-02-28 05:24:54,15.08843772,0.0001358,53.2165,47.9138,102.8283,257.2861,1.2803e-06,-2.68e-06,0.0,0 STARLINK-5044,1 53898U 22119N   24059.22563213 -.00000268  00000-0  12803-5 0  9998,2 53898  53.2165  47.9138 0001358 102.8283 257.2861 15.08843772 79901,6917.869,95.437,540.673,538.794,0.0
53898.0,STARLINK-5044,PAYLOAD,2024-02-28 22:54:09,15.08834634,0.0001343,53.216,44.6428,90.5642,269.5504,7.859e-05,9.63e-06,0.0,0 STARLINK-5044,1 53898U 22119N   24059.95427725  .00000963  00000-0  78590-4 0  9990,2 53898  53.2160  44.6428 0001343  90.5642 269.5504 15.08834634 80019,6917.897,95.438,540.691,538.833,0.0
53898.0,STARLINK-5044,PAYLOAD,2024-02-29 08:26:28,15.08843716,0.0001537,53.2177,42.8562,99.1138,261.0028,3.8897e-05,3.31e-06,0.0,0 STARLINK-5044,1 53898U 22119N   24060.35171384  .00000331  00000-0  38897-4 0  9998,2 53898  53.2177  42.8562 0001537  99.1138 261.0028 15.08843716 79653,6917.869,95.437,540.797,538.671,0.0
53898.0,STARLINK-5044,PAYLOAD,2024-02-29 22:44:56,15.08831163,0.000114,53.2173,40.1797,97.5872,262.5249,0.00015257,2.141e-05,0.0,0 STARLINK-5044,1 53898U 22119N   24060.94787752  .00002141  00000-0  15257-3 0  9990,2 53898  53.2173  40.1797 0001140  97.5872 262.5249 15.08831163 80169,6917.907,95.438,540.561,538.984,0.0
53898.0,STARLINK-5044,PAYLOAD,2024-03-01 03:31:05,15.08834716,0.0001163,53.2181,39.2874,99.2426,260.8698,0.00019271,2.78e-05,0.0,0 STARLINK-5044,1 53898U 22119N   24061.14659531  .00002780  00000-0  19271-3 0  9995,2 53898  53.2181  39.2874 0001163  99.2426 260.8698 15.08834716 79773,6917.897,95.438,540.566,538.957,0.0
53898.0,STARLINK-5044,PAYLOAD,2024-03-01 05:06:28,15.08846506,0.0001655,53.2185,38.9898,110.7357,249.3812,6.5481e-05,7.54e-06,0.0,0 STARLINK-5044,1 53898U 22119N   24061.21283168  .00000754  00000-0  65481-4 0  9996,2 53898  53.2185  38.9898 0001655 110.7357 249.3812 15.08846506 79788,6917.861,95.437,540.87,538.581,0.0
53898.0,STARLINK-5044,PAYLOAD,2024-03-02 03:21:52,15.08840996,0.0001583,53.218,34.828,93.5984,266.5189,6.3655e-05,7.25e-06,0.0,0 STARLINK-5044,1 53898U 22119N   24062.14019542  .00000725  00000-0  63655-4 0  9991,2 53898  53.2180  34.8280 0001583  93.5984 266.5189 15.08840996 79928,6917.877,95.437,540.837,538.647,0.0
53898.0,STARLINK-5044,PAYLOAD,2024-03-02 04:57:15,15.08844206,0.0001498,53.2183,34.5302,94.3561,265.7603,6.8714e-05,8.06e-06,0.0,0 STARLINK-5044,1 53898U 22119N   24062.20643342  .00000806  00000-0  68714-4 0  9990,2 53898  53.2183  34.5302 0001498  94.3561 265.7603 15.08844206 80357,6917.868,95.437,540.769,538.696,0.0
53898.0,STARLINK-5044,PAYLOAD,2024-03-03 04:48:03,15.08838093,0.0001427,53.219,30.0714,90.8797,269.2359,2.6614e-05,1.36e-06,0.0,0 STARLINK-5044,1 53898U 22119N   24063.20003669  .00000136  00000-0  26614-4 0  9992,2 53898  53.2190  30.0714 0001427  90.8797 269.2359 15.08838093 80081,6917.886,95.438,540.738,538.764,0.0
53898.0,STARLINK-5044,PAYLOAD,2024-03-03 07:58:49,15.08842404,0.0001381,53.2183,29.4748,84.469,275.646,3.0391e-05,1.96e-06,0.0,0 STARLINK-5044,1 53898U 22119N   24063.33251657  .00000196  00000-0  30391-4 0  9991,2 53898  53.2183  29.4748 0001381  84.4690 275.6460 15.08842404 80526,6917.873,95.437,540.693,538.783,0.0
53898.0,STARLINK-5044,PAYLOAD,2024-03-04 03:03:27,15.08842752,0.000133,53.2184,25.9046,87.5048,272.6096,1.1943e-06,-2.69e-06,0.0,0 STARLINK-5044,1 53898U 22119N   24064.12739771 -.00000269  00000-0  11943-5 0  9992,2 53898  53.2184  25.9046 0001330  87.5048 272.6096 15.08842752 80645,6917.872,95.437,540.657,538.817,0.0
53898.0,STARLINK-5044,PAYLOAD,2024-03-04 14:11:08,15.08845453,0.0001428,53.2191,23.823,88.7943,271.3213,0.00010941,1.454e-05,0.0,0 STARLINK-5044,1 53898U 22119N   24064.59107267  .00001454  00000-0  10941-3 0  9993,2 53898  53.2191  23.8230 0001428  88.7943 271.3213 15.08845453 80299,6917.864,95.437,540.717,538.741,0.0
53898.0,STARLINK-5044,PAYLOAD,2024-03-05 02:54:15,15.08825829,0.0001631,53.2188,21.446,78.9429,281.1747,-7.0038e-05,-1.402e-05,0.0,0 STARLINK-5044,1 53898U 22119N   24065.12101547 -.00001402  00000-0 -70038-4 0  9997,2 53898  53.2188  21.4460 0001631  78.9429 281.1747 15.08825829 80375,6917.924,95.438,540.917,538.66,0.0
53898.0,STARLINK-5044,PAYLOAD,2024-03-05 06:05:01,15.08834109,0.0001317,53.2182,20.8502,83.3314,276.7828,1.0402e-05,-1.22e-06,0.0,0 STARLINK-5044,1 53898U 22119N   24065.25348680 -.00000122  00000-0  10402-4 0  9998,2 53898  53.2182  20.8502 0001317  83.3314 276.7828 15.08834109 80813,6917.898,95.438,540.674,538.852,0.0
53898.0,STARLINK-5044,PAYLOAD,2024-03-05 14:01:56,15.08837331,0.0001615,53.2195,19.3637,76.7128,283.4044,6.8122e-05,7.96e-06,0.0,0 STARLINK-5044,1 53898U 22119N   24065.58468622  .00000796  00000-0  68122-4 0  9991,2 53898  53.2195  19.3637 0001615  76.7128 283.4044 15.08837331 80443,6917.889,95.438,540.871,538.636,0.0
53898.0,STARLINK-5044,PAYLOAD,2024-03-06 02:45:01,15.08847822,0.0001327,53.2165,16.9843,83.3358,276.7786,6.594e-05,7.62e-06,0.0,0 STARLINK-5044,1 53898U 22119N   24066.11460008  .00000762  00000-0  65940-4 0  9999,2 53898  53.2165  16.9843 0001327  83.3358 276.7786 15.08847822 80524,6917.856,95.437,540.639,538.803,0.0
53898.0,STARLINK-5044,PAYLOAD,2024-03-06 04:20:24,15.0885527,0.0001692,53.2185,16.6875,71.3749,288.7426,0.00020634,2.999e-05,0.0,0 STARLINK-5044,1 53898U 22119N   24066.18083721  .00002999  00000-0  20634-3 0  9993,2 53898  53.2185  16.6875 0001692  71.3749 288.7426 15.08855270 80535,6917.834,95.437,540.869,538.528,0.0
